[{"OBJECT_NAME":"ONEWEB-0706","OBJECT_ID":"2024-188T","EPOCH":"2025-12-27T04:17:24.422496","MEAN_MOTION":13.10376,"ECCENTRICITY":0.00012157,"INCLINATION":87.8795,"RA_OF_ASC_NODE":70.5596,"ARG_OF_PERICENTER":119.9121,"MEAN_ANOMALY":240.2127,"EPHEMERIS_TYPE":0,"CLASSIFICATION_TYPE":"U","NORAD_CAT_ID":61611,"ELEMENT_SET_NO":999,"REV_AT_EPOCH":6085,"BSTAR":0.0014695126,"MEAN_MOTION_DOT":5.26e-6,"MEAN_MOTION_DDOT":0},{"OBJECT_NAME":"ONEWEB-0707","OBJECT_ID":"2024-188U","EPOCH":"2025-12-27T06:16:55.766784","MEAN_MOTION":13.10375163,"ECCENTRICITY":0.00012164,"INCLINATION":87.881,"RA_OF_ASC_NODE":70.5227,"ARG_OF_PERICENTER":117.0368,"MEAN_ANOMALY":243.0883,"EPHEMERIS_TYPE":0,"CLASSIFICATION_TYPE":"U","NORAD_CAT_ID":61612,"ELEMENT_SET_NO":999,"REV_AT_EPOCH":6080,"BSTAR":0.0018804132,"MEAN_MOTION_DOT":6.69e-6,"MEAN_MOTION_DDOT":0},{"OBJECT_NAME":"ONEWEB-0708","OBJECT_ID":"2024-188V","EPOCH":"2025-12-27T04:53:15.849888","MEAN_MOTION":13.10370685,"ECCENTRICITY":0.00019417,"INCLINATION":87.8797,"RA_OF_ASC_NODE":70.5679,"ARG_OF_PERICENTER":121.5421,"MEAN_ANOMALY":238.5897,"EPHEMERIS_TYPE":0,"CLASSIFICATION_TYPE":"U","NORAD_CAT_ID":61613,"ELEMENT_SET_NO":999,"REV_AT_EPOCH":6077,"BSTAR":0.00081476648,"MEAN_MOTION_DOT":2.97e-6,"MEAN_MOTION_DDOT":0}]
