ONEWEB-0706             
1 61611U 24188T   25361.17875489  .00000526  00000+0  14695-2 0  9993
2 61611  87.8795  70.5596 0001215 119.9121 240.2127 13.10376000 60854
ONEWEB-0707             
1 61612U 24188U   25361.26175656  .00000669  00000+0  18804-2 0  9997
2 61612  87.8810  70.5227 0001216 117.0368 243.0883 13.10375163 60801
ONEWEB-0708             
1 61613U 24188V   25361.20365567  .00000297  00000+0  81477-3 0  9998
2 61613  87.8797  70.5679 0001941 121.5421 238.5897 13.10370685 60776
